#aV2023  5  1  0  0  0.00000000     288 DD+AD WGS84 FIT  NGA
## 2260  86400.00000000   300.00000000 60065 0.0000000000000
+   32     1  2  3  4  5  6  7  8  9 10 11 12 13 14 15 16 17
+         18 19 20 21 22 23 24 25 26 27 28 29 30 31 32  0  0
+          0  0  0  0  0  0  0  0  0  0  0  0  0  0  0  0  0
+          0  0  0  0  0  0  0  0  0  0  0  0  0  0  0  0  0
+          0  0  0  0  0  0  0  0  0  0  0  0  0  0  0  0  0
++         2  2  2  2  2  2  2  2  2  2  2  2  2  2  2  2  2
++         2  2  2  2  2  2  2  2  2  2  2  2  2  2  2  0  0
++         0  0  0  0  0  0  0  0  0  0  0  0  0  0  0  0  0
++         0  0  0  0  0  0  0  0  0  0  0  0  0  0  0  0  0
++         0  0  0  0  0  0  0  0  0  0  0  0  0  0  0  0  0
%c cc cc ccc ccc cccc cccc cccc cccc ccccc ccccc ccccc ccccc
%c cc cc ccc ccc cccc cccc cccc cccc ccccc ccccc ccccc ccccc
%f  0.0000000  0.000000000  0.00000000000  0.000000000000000
%f  0.0000000  0.000000000  0.00000000000  0.000000000000000
%i    0    0    0    0      0      0      0      0         0
%i    0    0    0    0      0      0      0      0         0
/*      NGA, ST. LOUIS,MO.                                  
/*   EPHEMERIS COMPUTED FROM 2 DAYS OF DATA                 
/*   EPOCHA v8 SMOOTHER                                     
/*   G2139 IERS2010 SATIGS SATAPC                           
*  2023  5  1 14 45  0.00000000
P  1  14182.425107 -21559.508447   5090.577070    188.708258                    
V  1  -1075.161142   7189.033839  31753.413578     -0.030412                    
P  2   6528.641039  18790.716475  18342.364336   -600.587239                    
V  2  -8706.594373  20233.070179 -17944.289182      0.038268                    
P  3  16461.062504 -12675.563632 -16604.583359   -315.369721                    
V  3  20902.151536   -327.484060  21251.392978      0.101935                    
P  4   6192.944888 -16150.381084 -20111.859681     30.467876                    
V  4  14923.278450  20822.566795 -12227.495087      0.095182                    
P  5 -26072.527147   4937.918273   2010.162483   -125.523569                    
V  5  -3071.106585  -2173.049000 -31648.834530     -0.014582                    
P  6  -9297.502386 -12892.730537 -21197.134576    588.009967                    
V  6  12142.506736 -24126.593597   9416.852651      0.003842                    
P  7   4514.037309 -24532.892494   8823.623577    188.654847                    
V  7   7416.432342  -8393.560752 -29084.112696     -0.089496                    
P  8  15095.108860  -4763.974469  21307.363360   -120.384296                    
V  8  15900.166021  22038.547814  -5928.981013     -0.018427                    
P  9  -3866.957299 -22150.201394 -14173.605425   -168.311296                    
V  9  12446.719763  13075.211465 -23989.151459      0.081914                    
P 10  14630.513663  11622.780042  19174.322665    -35.125863                    
V 10 -23635.826775   3089.681023  16012.886884     -0.015532                    
P 11 -16927.216742   1885.580608 -20363.900038   -181.379672                    
V 11  11205.747850 -23337.265492 -11505.249683     -0.133109                    
P 12 -19318.643657  10717.728283 -14958.688661   -370.689065                    
V 12 -18563.285566  -1568.566811  23372.270772     -0.046569                    
P 13 -17248.109528  -4013.788867  19683.722885    513.752663                    
V 13 -10636.403540 -22967.471189 -13681.141499      0.054464                    
P 14 -11299.216264 -13605.522139  19867.626342     42.491874                    
V 14  25094.604548  -2626.043928  12334.577256      0.123326                    
P 15 -14369.051177   7181.753362  20727.676403     35.606428                    
V 15 -18345.629020 -20432.209142  -5254.852951      0.034413                    
P 16  26798.081342    559.942705   -846.386160   -504.623393                    
V 16   -691.563404   2280.347534 -31537.598114      0.030480                    
P 17 -13067.940759 -23038.844311   1344.365105    713.073195                    
V 17   2724.675555   -272.940521  32062.751621      0.016582                    
P 18  -2771.774142  23659.763554  11586.142430   -247.978425                    
V 18  -8392.720446  12313.737366 -27297.298217     -0.161713                    
P 19 -16995.111126 -18929.572789  -8369.568558    311.061897                    
V 19  -3235.150572  -9888.645261  29459.986888      0.051099                    
P 20 -25302.400591    965.056463  -7648.909268    435.966702                    
V 20   8699.954853  -5566.560931 -29538.610989     -0.020973                    
P 21  16222.723782 -15210.265488  14398.952149    154.024481                    
V 21  -3680.372309  17485.809574  24373.382239     -0.001474                    
P 22  17933.211306  16566.268572 -10202.543875    473.882530                    
V 22   4741.409229  12940.430030  27952.858430      0.066191                    
P 23   1322.459390  14885.097757  21960.077591     20.815201                    
V 23 -27653.324339   3176.488850   -633.290669      0.028689                    
P 24 -14588.868120  19590.526797   9543.904830   -172.653734                    
V 24    893.331262 -13296.015824  28054.494007     -0.141998                    
P 25  -7826.683468  15376.756479 -20438.293805    439.691538                    
V 25 -25335.163480   1425.308513  11208.063484      0.027706                    
P 26  22786.929246   5929.939908 -12730.544563    241.286203                    
V 26 -15304.730517   5110.660933 -24904.348045     -0.003842                    
P 27  19265.092529   7213.958721  16777.621080     46.814861                    
V 27  11268.045940  18494.594098 -20180.030713     -0.082304                    
P 28   9055.311078  14734.517555 -20184.187078     72.895533                    
V 28 -10913.126586  23147.407869  12010.949139      0.046880                    
P 29   -725.737655  20727.624133 -16599.656908   -597.751078                    
V 29 -12055.758878 -17226.752969 -21135.746795     -0.014881                    
P 30  -4560.058644 -19769.249028  17112.323171   -519.563060                    
V 30  11391.688669 -18614.489091 -18852.618662      0.020125                    
P 31  14572.547079   5279.317864 -21765.651933   -215.186448                    
V 31 -12033.209852  24413.034591  -1716.120876     -0.007927                    
P 32  16184.854160  21152.094614  -1201.539451   -465.721413                    
V 32  -1191.018563   2983.410661  31541.387436     -0.095918                    
EOF
